STARLINK-30528          
1 57967U 23151D   26068.07017937 -.00001903  00000+0 -59648-4 0  9992
2 57967  43.0001 339.3327 0001339 277.3865  82.6834 15.27575133135670
HYPERFIELD-1A           
1 60562U 24149CY  26068.76488211  .00008569  00000+0  30052-3 0  9998
2 60562  97.3842 149.5066 0003865 313.7844  46.3076 15.29681349 86836
